[{"OBJECT_NAME":"JILIN-1 GAOFEN 03D15","OBJECT_ID":"2022-019R","EPOCH":"2026-03-09T23:58:07.561632","MEAN_MOTION":15.6920844,"ECCENTRICITY":0.00039863,"INCLINATION":97.369,"RA_OF_ASC_NODE":160.232,"ARG_OF_PERICENTER":172.8619,"MEAN_ANOMALY":187.27,"EPHEMERIS_TYPE":0,"CLASSIFICATION_TYPE":"U","NORAD_CAT_ID":51839,"ELEMENT_SET_NO":999,"REV_AT_EPOCH":22441,"BSTAR":0.0010884373,"MEAN_MOTION_DOT":0.00128061,"MEAN_MOTION_DDOT":0},{"OBJECT_NAME":"STARLINK-11316 [DTC]","OBJECT_ID":"2024-204B","EPOCH":"2026-03-09T23:20:18.596544","MEAN_MOTION":15.69690119,"ECCENTRICITY":0.00012991,"INCLINATION":53.1591,"RA_OF_ASC_NODE":354.5328,"ARG_OF_PERICENTER":58.2233,"MEAN_ANOMALY":301.8912,"EPHEMERIS_TYPE":0,"CLASSIFICATION_TYPE":"U","NORAD_CAT_ID":61875,"ELEMENT_SET_NO":999,"REV_AT_EPOCH":7696,"BSTAR":9.28149e-6,"MEAN_MOTION_DOT":5.35e-6,"MEAN_MOTION_DDOT":0}]
